start=new Date('2022-12-30T00:00:00.000Z').valueOf();
sats=[{"REF_FRAME":"TEME","PERIOD":"95.438","PERIAPSIS":"538.558","CENTER_NAME":"EARTH","EPHEMERIS_TYPE":"0","OBJECT_TYPE":"PAYLOAD","SEMIMAJOR_AXIS":"6917.910","MEAN_ANOMALY":"311.0576","MEAN_MOTION":"15.08830436","TLE_LINE1":"1 51990U 22025AL  22363.32454514 -.00000216  00000-0  45138-5 0  9995","MEAN_ELEMENT_THEORY":"SGP4","RA_OF_ASC_NODE":"215.1370","MEAN_MOTION_DOT":"-0.00000216","INCLINATION":"53.2163","NORAD_CAT_ID":"51990","TLE_LINE2":"2 51990  53.2163 215.1370 0001758  49.0568 311.0576 15.08830436 45255","SITE":"AFETR","LAUNCH_DATE":"2022-03-09","MEAN_MOTION_DDOT":"0.0000000000000","GP_ID":"221740178","REV_AT_EPOCH":"4525","TIME_SYSTEM":"UTC","COUNTRY_CODE":"US","FILE":"3725790","ARG_OF_PERICENTER":"49.0568","CLASSIFICATION_TYPE":"U","ECCENTRICITY":"0.00017580","EPOCH":"2022-12-29T07:47:20.700096","OBJECT_NAME":"STARLINK-3657","DECAY_DATE":null,"ELEMENT_SET_NO":"999","RCS_SIZE":"LARGE","OBJECT_ID":"2022-025AL","BSTAR":"0.00000451380000","APOAPSIS":"540.991"},{"TIME_SYSTEM":"UTC","GP_ID":"221738428","REV_AT_EPOCH":"4498","MEAN_MOTION_DDOT":"0.0000000000000","LAUNCH_DATE":"2022-03-09","TLE_LINE2":"2 51991  53.2140 235.0445 0002891  36.1462 323.9725 15.08829757 44985","SITE":"AFETR","NORAD_CAT_ID":"51991","CLASSIFICATION_TYPE":"U","ARG_OF_PERICENTER":"36.1462","FILE":"3725790","COUNTRY_CODE":"US","RCS_SIZE":"LARGE","ELEMENT_SET_NO":"999","DECAY_DATE":null,"OBJECT_NAME":"STARLINK-3652","EPOCH":"2022-12-29T08:21:46.580256","ECCENTRICITY":"0.00028910","APOAPSIS":"541.777","BSTAR":"-0.00026630000000","OBJECT_ID":"2022-025AM","PERIAPSIS":"537.777","REF_FRAME":"TEME","PERIOD":"95.438","EPHEMERIS_TYPE":"0","CENTER_NAME":"EARTH","MEAN_MOTION":"15.08829757","MEAN_ANOMALY":"323.9725","SEMIMAJOR_AXIS":"6917.912","OBJECT_TYPE":"PAYLOAD","INCLINATION":"53.2140","MEAN_MOTION_DOT":"-0.00004523","RA_OF_ASC_NODE":"235.0445","MEAN_ELEMENT_THEORY":"SGP4","TLE_LINE1":"1 51991U 22025AM  22363.34845579 -.00004523  00000-0 -26630-3 0  9993"},{"REV_AT_EPOCH":"4482","GP_ID":"221738678","TIME_SYSTEM":"UTC","NORAD_CAT_ID":"51992","TLE_LINE2":"2 51992  53.2168 215.2022 0002996  39.2409 320.8800 15.08834928 44827","SITE":"AFETR","LAUNCH_DATE":"2022-03-09","MEAN_MOTION_DDOT":"0.0000000000000","ARG_OF_PERICENTER":"39.2409","CLASSIFICATION_TYPE":"U","COUNTRY_CODE":"US","FILE":"3725790","OBJECT_NAME":"STARLINK-3643","DECAY_DATE":null,"RCS_SIZE":"LARGE","ELEMENT_SET_NO":"999","ECCENTRICITY":"0.00029960","EPOCH":"2022-12-29T07:31:26.679936","OBJECT_ID":"2022-025AN","BSTAR":"-0.00010997000000","APOAPSIS":"541.833","PERIOD":"95.438","REF_FRAME":"TEME","PERIAPSIS":"537.688","EPHEMERIS_TYPE":"0","CENTER_NAME":"EARTH","MEAN_ANOMALY":"320.8800","MEAN_MOTION":"15.08834928","OBJECT_TYPE":"PAYLOAD","SEMIMAJOR_AXIS":"6917.896","MEAN_MOTION_DOT":"-0.00002038","INCLINATION":"53.2168","TLE_LINE1":"1 51992U 22025AN  22363.31350324 -.00002038  00000-0 -10997-3 0  9998","MEAN_ELEMENT_THEORY":"SGP4","RA_OF_ASC_NODE":"215.2022"},{"PERIOD":"95.439","REF_FRAME":"TEME","PERIAPSIS":"538.320","CENTER_NAME":"EARTH","EPHEMERIS_TYPE":"0","OBJECT_TYPE":"PAYLOAD","SEMIMAJOR_AXIS":"6917.946","MEAN_ANOMALY":"322.4124","MEAN_MOTION":"15.08818521","TLE_LINE1":"1 51993U 22025AP  22363.66862594  .00002256  00000-0  15991-3 0  9993","MEAN_ELEMENT_THEORY":"SGP4","RA_OF_ASC_NODE":"233.5985","INCLINATION":"53.2150","MEAN_MOTION_DOT":"0.00002256","NORAD_CAT_ID":"51993","MEAN_MOTION_DDOT":"0.0000000000000","LAUNCH_DATE":"2022-03-09","TLE_LINE2":"2 51993  53.2150 233.5985 0002155  37.7019 322.4124 15.08818521 46142","SITE":"AFETR","GP_ID":"221742218","REV_AT_EPOCH":"4614","TIME_SYSTEM":"UTC","COUNTRY_CODE":"US","FILE":"3725826","ARG_OF_PERICENTER":"37.7019","CLASSIFICATION_TYPE":"U","ECCENTRICITY":"0.00021550","EPOCH":"2022-12-29T16:02:49.281216","DECAY_DATE":null,"OBJECT_NAME":"STARLINK-3648","RCS_SIZE":"LARGE","ELEMENT_SET_NO":"999","BSTAR":"0.00015991000000","OBJECT_ID":"2022-025AP","APOAPSIS":"541.302"},{"TIME_SYSTEM":"UTC","GP_ID":"221739679","REV_AT_EPOCH":"4483","TLE_LINE2":"2 51994  53.2172 215.2190 0002473  40.7841 319.3336 15.08833490 44838","SITE":"AFETR","LAUNCH_DATE":"2022-03-09","MEAN_MOTION_DDOT":"0.0000000000000","NORAD_CAT_ID":"51994","CLASSIFICATION_TYPE":"U","ARG_OF_PERICENTER":"40.7841","FILE":"3725790","COUNTRY_CODE":"US","RCS_SIZE":"LARGE","ELEMENT_SET_NO":"999","OBJECT_NAME":"STARLINK-3647","DECAY_DATE":null,"EPOCH":"2022-12-29T07:26:08.626848","ECCENTRICITY":"0.00024730","APOAPSIS":"541.476","OBJECT_ID":"2022-025AQ","BSTAR":"-0.00004767600000","PERIAPSIS":"538.054","PERIOD":"95.438","REF_FRAME":"TEME","EPHEMERIS_TYPE":"0","CENTER_NAME":"EARTH","MEAN_MOTION":"15.08833490","MEAN_ANOMALY":"319.3336","SEMIMAJOR_AXIS":"6917.900","OBJECT_TYPE":"PAYLOAD","MEAN_MOTION_DOT":"-0.00001047","INCLINATION":"53.2172","MEAN_ELEMENT_THEORY":"SGP4","RA_OF_ASC_NODE":"215.2190","TLE_LINE1":"1 51994U 22025AQ  22363.30982207 -.00001047  00000-0 -47676-4 0  9994"},{"FILE":"3725790","COUNTRY_CODE":"US","CLASSIFICATION_TYPE":"U","ARG_OF_PERICENTER":"60.9736","TLE_LINE2":"2 51995  53.2158 214.5591 0001598  60.9736 299.1416 15.08830775 44842","SITE":"AFETR","MEAN_MOTION_DDOT":"0.0000000000000","LAUNCH_DATE":"2022-03-09","NORAD_CAT_ID":"51995","TIME_SYSTEM":"UTC","GP_ID":"221738928","REV_AT_EPOCH":"4484","APOAPSIS":"540.879","OBJECT_ID":"2022-025AR","BSTAR":"0.00000540640000","EPOCH":"2022-12-29T10:52:48.897408","ECCENTRICITY":"0.00015980","RCS_SIZE":"LARGE","ELEMENT_SET_NO":"999","OBJECT_NAME":"STARLINK-3636","DECAY_DATE":null,"CENTER_NAME":"EARTH","EPHEMERIS_TYPE":"0","PERIAPSIS":"538.668","REF_FRAME":"TEME","PERIOD":"95.438","MEAN_ELEMENT_THEORY":"SGP4","RA_OF_ASC_NODE":"214.5591","TLE_LINE1":"1 51995U 22025AR  22363.45334372 -.00000202  00000-0  54064-5 0  9996","MEAN_MOTION_DOT":"-0.00000202","INCLINATION":"53.2158","SEMIMAJOR_AXIS":"6917.909","OBJECT_TYPE":"PAYLOAD","MEAN_MOTION":"15.08830775","MEAN_ANOMALY":"299.1416"},{"APOAPSIS":"541.066","BSTAR":"-0.00009187000000","OBJECT_ID":"2022-025AS","RCS_SIZE":"LARGE","ELEMENT_SET_NO":"999","DECAY_DATE":null,"OBJECT_NAME":"STARLINK-3538","EPOCH":"2022-12-29T07:20:50.701632","ECCENTRICITY":"0.00018590","CLASSIFICATION_TYPE":"U","ARG_OF_PERICENTER":"44.3446","FILE":"3725790","COUNTRY_CODE":"US","TIME_SYSTEM":"UTC","REV_AT_EPOCH":"4483","GP_ID":"221739178","LAUNCH_DATE":"2022-03-09","MEAN_MOTION_DDOT":"0.0000000000000","TLE_LINE2":"2 51996  53.2149 215.2348 0001859  44.3446 315.7695 15.08828735 44831","SITE":"AFETR","NORAD_CAT_ID":"51996","INCLINATION":"53.2149","MEAN_MOTION_DOT":"-0.00001750","MEAN_ELEMENT_THEORY":"SGP4","RA_OF_ASC_NODE":"215.2348","TLE_LINE1":"1 51996U 22025AS  22363.30614238 -.00001750  00000-0 -91870-4 0  9998","MEAN_MOTION":"15.08828735","MEAN_ANOMALY":"315.7695","SEMIMAJOR_AXIS":"6917.915","OBJECT_TYPE":"PAYLOAD","EPHEMERIS_TYPE":"0","CENTER_NAME":"EARTH","PERIAPSIS":"538.494","REF_FRAME":"TEME","PERIOD":"95.438"},{"PERIOD":"95.438","REF_FRAME":"TEME","PERIAPSIS":"538.401","EPHEMERIS_TYPE":"0","CENTER_NAME":"EARTH","MEAN_ANOMALY":"306.9163","MEAN_MOTION":"15.08828285","OBJECT_TYPE":"PAYLOAD","SEMIMAJOR_AXIS":"6917.916","INCLINATION":"53.2150","MEAN_MOTION_DOT":"-0.00003175","TLE_LINE1":"1 51997U 22025AT  22363.31717624 -.00003175  00000-0 -18150-3 0  9995","MEAN_ELEMENT_THEORY":"SGP4","RA_OF_ASC_NODE":"215.1679","GP_ID":"221739429","REV_AT_EPOCH":"4482","TIME_SYSTEM":"UTC","NORAD_CAT_ID":"51997","MEAN_MOTION_DDOT":"0.0000000000000","LAUNCH_DATE":"2022-03-09","TLE_LINE2":"2 51997  53.2150 215.1679 0001995  53.2012 306.9163 15.08828285 44820","SITE":"AFETR","ARG_OF_PERICENTER":"53.2012","CLASSIFICATION_TYPE":"U","COUNTRY_CODE":"US","FILE":"3725790","DECAY_DATE":null,"OBJECT_NAME":"STARLINK-3589","ELEMENT_SET_NO":"999","RCS_SIZE":"LARGE","ECCENTRICITY":"0.00019950","EPOCH":"2022-12-29T07:36:44.027136","BSTAR":"-0.00018150000000","OBJECT_ID":"2022-025AT","APOAPSIS":"541.161"},{"PERIAPSIS":"538.868","PERIOD":"95.438","REF_FRAME":"TEME","CENTER_NAME":"EARTH","EPHEMERIS_TYPE":"0","SEMIMAJOR_AXIS":"6917.897","OBJECT_TYPE":"PAYLOAD","MEAN_MOTION":"15.08834544","MEAN_ANOMALY":"287.2213","MEAN_ELEMENT_THEORY":"SGP4","RA_OF_ASC_NODE":"214.7616","TLE_LINE1":"1 51998U 22025AU  22363.40917587 -.00001998  00000-0 -10751-3 0  9996","MEAN_MOTION_DOT":"-0.00001998","INCLINATION":"53.2157","TLE_LINE2":"2 51998  53.2157 214.7616 0001293  72.8921 287.2213 15.08834544 46364","SITE":"AFETR","LAUNCH_DATE":"2022-03-09","MEAN_MOTION_DDOT":"0.0000000000000","NORAD_CAT_ID":"51998","TIME_SYSTEM":"UTC","GP_ID":"221742769","REV_AT_EPOCH":"4636","FILE":"3725841","COUNTRY_CODE":"US","CLASSIFICATION_TYPE":"U","ARG_OF_PERICENTER":"72.8921","EPOCH":"2022-12-29T09:49:12.795168","ECCENTRICITY":"0.00012930","RCS_SIZE":"MEDIUM","ELEMENT_SET_NO":"999","OBJECT_NAME":"STARLINK-3618","DECAY_DATE":null,"APOAPSIS":"540.657","OBJECT_ID":"2022-025AU","BSTAR":"-0.00010751000000"},{"RA_OF_ASC_NODE":"215.2386","MEAN_ELEMENT_THEORY":"SGP4","TLE_LINE1":"1 51999U 22025AV  22363.30342014 -.00002215  00000-0 -12114-3 0  9991","MEAN_MOTION_DOT":"-0.00002215","INCLINATION":"53.2167","SEMIMAJOR_AXIS":"6917.928","OBJECT_TYPE":"PAYLOAD","MEAN_MOTION":"15.08824309","MEAN_ANOMALY":"321.0470","CENTER_NAME":"EARTH","EPHEMERIS_TYPE":"0","PERIAPSIS":"538.145","PERIOD":"95.439","REF_FRAME":"TEME","APOAPSIS":"541.441","OBJECT_ID":"2022-025AV","BSTAR":"-0.00012114000000","EPOCH":"2022-12-29T07:16:55.500096","ECCENTRICITY":"0.00023820","RCS_SIZE":"LARGE","ELEMENT_SET_NO":"999","OBJECT_NAME":"STARLINK-3667","DECAY_DATE":null,"FILE":"3725790","COUNTRY_CODE":"US","CLASSIFICATION_TYPE":"U","ARG_OF_PERICENTER":"39.0694","TLE_LINE2":"2 51999  53.2167 215.2386 0002382  39.0694 321.0470 15.08824309 44838","SITE":"AFETR","LAUNCH_DATE":"2022-03-09","MEAN_MOTION_DDOT":"0.0000000000000","NORAD_CAT_ID":"51999","TIME_SYSTEM":"UTC","GP_ID":"221738429","REV_AT_EPOCH":"4483"}];
